BEESAT-4                
1 41619U 16040W   22134.38262397  .00015803  00000+0  54429-3 0  9997
2 41619  97.2202 185.9388 0008644 227.8174 132.2334 15.30077570315518
CAS-2T & KS-1Q          
1 41847U 16066G   22134.81753407  .00000530  00000+0  90621-4 0  9999
2 41847  98.5526 199.5169 0363087 310.6248  46.3877 14.38538806289518
NAYIF-1 (EO-88)         
1 42017U 17008BX  22134.71209735  .00019400  00000+0  60126-3 0  9997
2 42017  97.2714 201.3372 0004867  26.6140 333.5352 15.33457657291909
ZHUHAI-1 02 (CAS-4B)    
1 42759U 17034B   22134.55946579  .00002653  00000+0  16624-3 0  9991
2 42759  43.0169 159.4879 0007643  69.6811  67.2002 15.11631099271223
ZHUHAI-1 01 (CAS-4A)    
1 42761U 17034D   22134.80140969  .00002823  00000+0  17562-3 0  9992
2 42761  43.0166 156.9667 0007975  73.4090  95.5638 15.11725436271262
MAX VALIER SAT          
1 42778U 17036P   22134.37271051  .00009965  00000+0  38507-3 0  9997
2 42778  97.2088 176.6516 0013109  89.9483 270.3258 15.26353072271709
RADFXSAT (FOX-1B)       
1 43017U 17073E   22134.66420347  .00004600  00000+0  35151-3 0  9994
2 43017  97.6793  30.2337 0248056 298.7036  58.9448 14.81178533242115
FOX-1D (AO-92)          
1 43137U 18004AC  22134.72060699  .00012083  00000+0  43535-3 0  9998
2 43137  97.3700 210.1943 0009436 119.6351 240.5830 15.28665092241197
DIWATA-2B               
1 43678U 18084H   22134.85302516  .00000700  00000+0  74572-4 0  9996
2 43678  97.9644 267.7355 0010739  42.6382 317.5689 14.92100758192849
ES'HAIL 2               
1 43700U 18090A   22134.88730115  .00000156  00000+0  00000+0 0  9997
2 43700   0.0537  97.9057 0002716 344.9643 134.9542  1.00272555 12690
FOX-1CLIFF (AO-95)      
1 43770U 18099N   22134.62010043  .00002917  00000+0  26288-3 0  9993
2 43770  97.6230 201.8488 0015015  35.2795 324.9417 14.96250358187957
ITASAT 1                
1 43786U 18099AE  22134.75067533  .00002764  00000+0  24822-3 0  9992
2 43786  97.6258 202.8755 0015527  28.0947 332.1110 14.96424519188010
JY1SAT (JO-97)          
1 43803U 18099AX  22134.71230850  .00003348  00000+0  29627-3 0  9999
2 43803  97.6206 202.5853 0014956  25.8100 334.3865 14.96866578188027
UWE-4                   
1 43880U 18111E   22134.73626522  .00003642  00000+0  31348-3 0  9996
2 43880  97.6701  41.6361 0013205  76.2469 284.0222 14.97926452184654
NEXUS (FO-99)           
1 43937U 19003F   22134.88604639  .00014918  00000+0  51595-3 0  9995
2 43937  97.1334 169.5566 0018869 272.8011  87.1071 15.29816124184844
PSAT2 (NO-104)          
1 44354U 19036R   22134.90770506  .00068787 -53650-5  66819-3 0  9999
2 44354  28.5286  50.1462 0246926 313.8138  44.2285 15.34907383159516
JAISAT-1                
1 44419U 19038F   22134.86416336  .00011205  00000+0  57196-3 0  9991
2 44419  97.6334 104.7352 0017510 245.4533 114.4875 15.16753715157967
DUCHIFAT-3              
1 44854U 19089C   22134.84570087  .00003417  00000+0  26981-3 0  9996
2 44854  36.9678 299.5541 0009584 311.2448  48.7492 15.00813855132882
CAS-6 (TO-108)          
1 44881U 19093C   22134.94818566  .00000499  00000+0  69991-4 0  9995
2 44881  97.8924 214.6368 0013758 298.0719  61.9094 14.81680969129818
RS-44 & BREEZE-KM R/B   
1 44909U 19096E   22134.80765402 -.00000008  00000+0 -79314-4 0  9992
2 44909  82.5217 252.6234 0217925  38.6644 322.9833 12.79713128111200
ORBITAL FACTORY 2 (OF-2)
1 45113U 19071C   22134.53110084  .00029277  00000+0  64427-3 0  9998
2 45113  51.6396 226.0755 0010194  41.9956 318.1810 15.43674458128136
HUSKYSAT-1 (HO-107)     
1 45119U 19071J   22134.64828341  .00026317  00000+0  59430-3 0  9998
2 45119  51.6394 225.3358 0010062  39.7916 320.3806 15.42965897128146
BY70-2                  
1 45857U 20042B   22134.95071430  .00006137  00000+0  83106-3 0  9995
2 45857  97.9543 212.1213 0010215 214.0935 145.9671 14.79282457100501
SALSAT                  
1 46495U 20068K   22134.84094956  .00003504  00000+0  25501-3 0  9998
2 46495  97.7288  76.1385 0017559  36.2162 324.0249 15.04338719 89134
BY70-3                  
1 46839U 20079N   22134.81884799  .00019765  00000+0  48965-3 0  9996
2 46839  97.2004 207.3838 0007503 101.8520  30.5509 15.40411872 85061
RADFXSAT-2 (AO-109)     
1 47311U 21002C   22134.37548067  .00009601  00000+0  39555-3 0  9998
2 47311  60.6842 130.4770 0011471 293.8465  66.1420 15.24663065 73262
UVSQ-SAT                
1 47438U 21006AB  22134.60653203  .00007067  00000+0  37854-3 0  9991
2 47438  97.4399 194.3163 0012740  40.3678 319.8498 15.15246479 72159
DIY-1 (ARDUIQUBE)       
1 47963U 21022AH  22134.21971964  .00017782  00000+0  10257-2 0  9998
2 47963  97.5354  35.9981 0015030 248.3211 111.6419 15.12324442 61771
XW-3 (CAS-9)            
1 50466U 21131B   22134.85421381  .00000245  00000+0  94836-4 0  9997
2 50466  98.5807 212.1230 0003535 237.1316 122.9531 14.38482673 20089
